[{"OBJECT_NAME":"CORVUS BC2","OBJECT_ID":"2017-042X","EPOCH":"2026-03-09T22:14:39.055488","MEAN_MOTION":15.05610206,"ECCENTRICITY":0.00145863,"INCLINATION":97.3955,"RA_OF_ASC_NODE":234.2405,"ARG_OF_PERICENTER":92.385,"MEAN_ANOMALY":267.9047,"EPHEMERIS_TYPE":0,"CLASSIFICATION_TYPE":"U","NORAD_CAT_ID":42846,"ELEMENT_SET_NO":999,"REV_AT_EPOCH":47212,"BSTAR":0.00034626467,"MEAN_MOTION_DOT":4.947e-5,"MEAN_MOTION_DDOT":0},{"OBJECT_NAME":"STARLINK-5520","OBJECT_ID":"2023-094B","EPOCH":"2026-03-09T06:37:58.905408","MEAN_MOTION":15.02536069,"ECCENTRICITY":0.00013169,"INCLINATION":43.0044,"RA_OF_ASC_NODE":32.9342,"ARG_OF_PERICENTER":267.5641,"MEAN_ANOMALY":92.5051,"EPHEMERIS_TYPE":0,"CLASSIFICATION_TYPE":"U","NORAD_CAT_ID":57219,"ELEMENT_SET_NO":999,"REV_AT_EPOCH":14705,"BSTAR":2.1674111e-5,"MEAN_MOTION_DOT":8.9e-7,"MEAN_MOTION_DDOT":0}]
